NORAD_CAT_ID,OBJECT_NAME,OBJECT_TYPE,EPOCH,MEAN_MOTION,ECCENTRICITY,INCLINATION,RA_OF_ASC_NODE,ARG_OF_PERICENTER,MEAN_ANOMALY,BSTAR,MEAN_MOTION_DOT,MEAN_MOTION_DDOT,TLE_LINE0,TLE_LINE1,TLE_LINE2,SEMIMAJOR_AXIS,PERIOD,APOGEE,PERIGEE,DECAYED
49770.0,STARLINK-3191,PAYLOAD,2022-11-29 18:24:06,15.08838718,0.0002241,53.2167,107.8339,49.3412,310.7775,0.0001131,1.512e-05,0.0,0 STARLINK-3191,1 49770U 21115AY  22333.76674117  .00001512  00000-0  11310-3 0  9997,2 49770  53.2167 107.8339 0002241  49.3412 310.7775 15.08838718 56253,6917.884,95.438,541.3,538.1990000000002,0.0
49770.0,STARLINK-3191,PAYLOAD,2022-11-30 08:42:34,15.08841546,0.0002374,53.2161,105.1573,55.9733,304.1484,3.6808e-05,2.98e-06,0.0,0 STARLINK-3191,1 49770U 21115AY  22334.36290243  .00000298  00000-0  36808-4 0  9998,2 49770  53.2161 105.1573 0002374  55.9733 304.1484 15.08841546 56330,6917.876,95.437,541.383,538.0980000000002,0.0
49770.0,STARLINK-3191,PAYLOAD,2022-12-01 02:11:48,15.08849338,0.0002299,53.2176,101.8865,49.2274,310.8918,-2.2967e-05,-6.54e-06,0.0,0 STARLINK-3191,1 49770U 21115AY  22335.09153844 -.00000654  00000-0 -22967-4 0  9993,2 49770  53.2176 101.8865 0002299  49.2274 310.8918 15.08849338 56451,6917.852,95.437,541.307,538.126,0.0
49770.0,STARLINK-3191,PAYLOAD,2022-12-01 18:05:40,15.0883995,0.0002103,53.2165,98.9118,48.7615,311.3558,6.1376e-05,6.89e-06,0.0,0 STARLINK-3191,1 49770U 21115AY  22335.75394392  .00000689  00000-0  61376-4 0  9994,2 49770  53.2165  98.9118 0002103  48.7615 311.3558 15.08839950 56548,6917.880999999999,95.438,541.2,538.2909999999998,0.0
49770.0,STARLINK-3191,PAYLOAD,2022-12-02 08:24:08,15.08846823,0.0002116,53.2173,96.2371,42.8182,317.2975,0.00013593,1.876e-05,0.0,0 STARLINK-3191,1 49770U 21115AY  22336.35009667  .00001876  00000-0  13593-3 0  9995,2 49770  53.2173  96.2371 0002116  42.8182 317.2975 15.08846823 56632,6917.86,95.437,541.188,538.261,0.0
49770.0,STARLINK-3191,PAYLOAD,2022-12-02 14:45:41,15.08837874,0.0002109,53.2171,95.0472,45.3746,314.7418,0.00021532,3.14e-05,0.0,0 STARLINK-3191,1 49770U 21115AY  22336.61506069  .00003140  00000-0  21532-3 0  9990,2 49770  53.2171  95.0472 0002109  45.3746 314.7418 15.08837874 56679,6917.887,95.438,541.211,538.293,0.0
49770.0,STARLINK-3191,PAYLOAD,2022-12-03 14:36:28,15.08835188,0.0002095,53.2179,90.5876,39.2301,320.8843,2.8618000000000013e-05,1.67e-06,0.0,0 STARLINK-3191,1 49770U 21115AY  22337.60866578  .00000167  00000-0  28618-4 0  9993,2 49770  53.2179  90.5876 0002095  39.2301 320.8843 15.08835188 56821,6917.895,95.438,541.2090000000002,538.311,0.0
49770.0,STARLINK-3191,PAYLOAD,2022-12-03 17:47:14,15.08834812,0.0002094,53.2174,89.9922,40.1562,319.9585,4.366e-05,4.07e-06,0.0,0 STARLINK-3191,1 49770U 21115AY  22337.74114539  .00000407  00000-0  43660-4 0  9992,2 49770  53.2174  89.9922 0002094  40.1562 319.9585 15.08834812 56857,6917.896,95.438,541.21,538.313,0.0
49770.0,STARLINK-3191,PAYLOAD,2022-12-04 14:27:15,15.08834205,0.0002037,53.2174,86.1267,35.3078,324.8049,3.869e-05,3.28e-06,0.0,0 STARLINK-3191,1 49770U 21115AY  22338.60226590  .00000328  00000-0  38690-4 0  9998,2 49770  53.2174  86.1267 0002037  35.3078 324.8049 15.08834205 56983,6917.898,95.438,541.172,538.354,0.0
49770.0,STARLINK-3191,PAYLOAD,2022-12-04 19:13:24,15.08838426,0.0002067,53.2174,85.2344,36.2333,323.8799,7.0381e-05,8.32e-06,0.0,0 STARLINK-3191,1 49770U 21115AY  22338.80098335  .00000832  00000-0  70381-4 0  9997,2 49770  53.2174  85.2344 0002067  36.2333 323.8799 15.08838426 57011,6917.885,95.438,541.18,538.32,0.0
49770.0,STARLINK-3191,PAYLOAD,2022-12-04 23:59:34,15.08840719,0.0002056,53.2176,84.3424,33.9992,326.1132,8.261399999999999e-05,1.027e-05,0.0,0 STARLINK-3191,1 49770U 21115AY  22338.99970167  .00001027  00000-0  82614-4 0  9998,2 49770  53.2176  84.3424 0002056  33.9992 326.1132 15.08840719 57032,6917.878000000002,95.438,541.1659999999998,538.321,0.0
49770.0,STARLINK-3191,PAYLOAD,2022-12-05 14:18:02,15.08837386,0.0002096,53.2177,81.6662,39.4624,320.652,9.575e-05,1.236e-05,0.0,0 STARLINK-3191,1 49770U 21115AY  22339.59586396  .00001236  00000-0  95750-4 0  9999,2 49770  53.2177  81.6662 0002096  39.4624 320.6520 15.08837386 57131,6917.888000000001,95.438,541.203,538.303,0.0
49770.0,STARLINK-3191,PAYLOAD,2022-12-06 06:11:53,15.08850893,0.0002093,53.218,78.6925,39.4605,320.6539,0.00011772,1.586e-05,0.0,0 STARLINK-3191,1 49770U 21115AY  22340.25825325  .00001586  00000-0  11772-3 0  9991,2 49770  53.2180  78.6925 0002093  39.4605 320.6539 15.08850893 57227,6917.847,95.437,541.16,538.264,0.0
49770.0,STARLINK-3191,PAYLOAD,2022-12-06 07:47:16,15.08847063,0.000207,53.2183,78.3947,37.5768,322.5368,0.00013432,1.851e-05,0.0,0 STARLINK-3191,1 49770U 21115AY  22340.32449526  .00001851  00000-0  13432-3 0  9994,2 49770  53.2183  78.3947 0002070  37.5768 322.5368 15.08847063 57243,6917.859,95.437,541.156,538.2919999999998,0.0
49770.0,STARLINK-3191,PAYLOAD,2022-12-06 15:44:13,15.08831595,0.0002106,53.2198,76.9087,34.1216,325.9911,1.393e-05,-6.7e-07,0.0,0 STARLINK-3191,1 49770U 21115AY  22340.65570926 -.00000067  00000-0  13930-4 0  9992,2 49770  53.2198  76.9087 0002106  34.1216 325.9911 15.08831595 57298,6917.906,95.438,541.2280000000002,538.314,0.0
49770.0,STARLINK-3191,PAYLOAD,2022-12-07 12:24:14,15.08836113,0.0002008,53.2188,73.0433,32.0567,328.0547,4.0658e-05,3.59e-06,0.0,0 STARLINK-3191,1 49770U 21115AY  22341.51683024  .00000359  00000-0  40658-4 0  9992,2 49770  53.2188  73.0433 0002008  32.0567 328.0547 15.08836113 57422,6917.892,95.438,541.146,538.368,0.0
49770.0,STARLINK-3191,PAYLOAD,2022-12-07 23:31:55,15.08846687,0.000211,53.2188,70.9625,33.4083,326.7042,0.00015575,2.192e-05,0.0,0 STARLINK-3191,1 49770U 21115AY  22341.98050005  .00002192  00000-0  15575-3 0  9996,2 49770  53.2188  70.9625 0002110  33.4083 326.7042 15.08846687 57481,6917.86,95.437,541.185,538.265,0.0
49770.0,STARLINK-3191,PAYLOAD,2022-12-08 12:14:54,15.089409,0.0003391,53.2184,68.5878,321.9417,38.1335,0.00021509,3.146e-05,0.0,0 STARLINK-3191,1 49770U 21115AY  22342.51035351  .00003146  00000-0  21509-3 0  9997,2 49770  53.2184  68.5878 0003391 321.9417  38.1335 15.08940900 57570,6917.571999999999,95.431,541.783,537.091,0.0
49770.0,STARLINK-3191,PAYLOAD,2022-12-08 13:50:08,15.09065627,0.0001967,53.2184,68.2887,329.9616,30.1263,0.0014055,0.0002229,0.0,0 STARLINK-3191,1 49770U 21115AY  22342.57648205  .00022290  00000-0  14055-2 0  9999,2 49770  53.2184  68.2887 0001967 329.9616  30.1263 15.09065627 57570,6917.191,95.423,540.4159999999998,537.695,0.0
49770.0,STARLINK-3191,PAYLOAD,2022-12-08 23:22:46,15.08760668,0.0003115,53.2178,66.5069,298.4239,61.6439,-0.00056405,-9.235e-05,0.0,0 STARLINK-3191,1 49770U 21115AY  22342.97414684 -.00009235  00000-0 -56405-3 0  9997,2 49770  53.2178  66.5069 0003115 298.4239  61.6439 15.08760668 57631,6918.123000000001,95.443,542.143,537.8330000000002,0.0
49770.0,STARLINK-3191,PAYLOAD,2022-12-09 05:44:14,15.08870801,0.0002742,53.2177,65.3165,9.7369,350.3676,-0.00053572,-8.812e-05,0.0,0 STARLINK-3191,1 49770U 21115AY  22343.23905834 -.00008812  00000-0 -53572-3 0  9991,2 49770  53.2177  65.3165 0002742   9.7369 350.3676 15.08870801 57672,6917.786,95.436,541.548,537.754,0.0
49770.0,STARLINK-3191,PAYLOAD,2022-12-09 16:51:59,15.0881902,0.0002348,53.2173,63.2344,21.434,338.675,-0.00087332,-0.00014153,0.0,0 STARLINK-3191,1 49770U 21115AY  22343.70277230 -.00014153  00000-0 -87332-3 0  9991,2 49770  53.2173  63.2344 0002348  21.4340 338.6750 15.08819020 57742,6917.945,95.439,541.434,538.185,0.0
49770.0,STARLINK-3191,PAYLOAD,2022-12-10 11:56:36,15.08829956,0.0002376,53.2177,59.6651,31.4819,328.6315,-0.00021272,-3.671e-05,0.0,0 STARLINK-3191,1 49770U 21115AY  22344.49764415 -.00003671  00000-0 -21272-3 0  9998,2 49770  53.2177  59.6651 0002376  31.4819 328.6315 15.08829956 57867,6917.911,95.438,541.42,538.132,0.0
49770.0,STARLINK-3191,PAYLOAD,2022-12-10 16:42:45,15.08832645,0.0002283,53.2174,58.7707,29.3437,330.7683,-0.0001482,-2.646e-05,0.0,0 STARLINK-3191,1 49770U 21115AY  22344.69636120 -.00002646  00000-0 -14820-3 0  9993,2 49770  53.2174  58.7707 0002283  29.3437 330.7683 15.08832645 57901,6917.903,95.438,541.347,538.189,0.0
49770.0,STARLINK-3191,PAYLOAD,2022-12-11 11:47:24,15.08819401,0.0001788,53.2189,55.198,24.6312,335.4765,-7.6047e-05,-1.497e-05,0.0,0 STARLINK-3191,1 49770U 21115AY  22345.49125307 -.00001497  00000-0 -76047-4 0  9995,2 49770  53.2189  55.1980 0001788  24.6312 335.4765 15.08819401 58022,6917.943,95.439,541.045,538.571,0.0
49770.0,STARLINK-3191,PAYLOAD,2022-12-12 05:16:39,15.08822244,0.0002521,53.2186,51.9307,30.1445,329.9692,0.00025773,3.814e-05,0.0,0 STARLINK-3191,1 49770U 21115AY  22346.21989849  .00003814  00000-0  25773-3 0  9997,2 49770  53.2186  51.9307 0002521  30.1445 329.9692 15.08822244 58128,6917.935,95.439,541.544,538.056,0.0
49770.0,STARLINK-3191,PAYLOAD,2022-12-12 10:02:48,15.08838603,0.0002251,53.217,51.0387,32.4023,327.7107,0.00032487,4.886e-05,0.0,0 STARLINK-3191,1 49770U 21115AY  22346.41861562  .00004886  00000-0  32487-3 0  9990,2 49770  53.2170  51.0387 0002251  32.4023 327.7107 15.08838603 58153,6917.885,95.438,541.307,538.192,0.0
49770.0,STARLINK-3191,PAYLOAD,2022-12-13 13:04:21,15.088491199999998,0.0002397,53.2174,45.9841,31.7527,328.361,0.00010905,1.448e-05,0.0,0 STARLINK-3191,1 49770U 21115AY  22347.54468841  .00001448  00000-0  10905-3 0  9990,2 49770  53.2174  45.9841 0002397  31.7527 328.3610 15.08849120 58338,6917.853,95.437,541.376,538.059,0.0
49770.0,STARLINK-3191,PAYLOAD,2022-12-14 12:55:07,15.08850445,0.0002364,53.2156,41.5219,24.8781,335.2325,-9.5173e-06,-4.4e-06,0.0,0 STARLINK-3191,1 49770U 21115AY  22348.53827758 -.00000440  00000-0 -95173-5 0  9991,2 49770  53.2156  41.5219 0002364  24.8781 335.2325 15.08850445 58486,6917.848000000001,95.437,541.349,538.078,0.0
